DIAMOND BLUE            
1 42786U 17036X   24098.85129470  .00825064  33813-3  13748-2 0  9994
2 42786  97.0959 138.7390 0005332 191.9246 168.1910 16.03002932378880
CICERO 6                
1 42793U 17036AE  24098.83428764  .00093659  00000+0  80745-3 0  9995
2 42793  97.1010 135.4544 0005502 113.7781 246.4058 15.68961387378697
CORVUS BC2              
1 42846U 17042X   24098.82119197  .00002986  00000+0  26449-3 0  9991
2 42846  97.3760 287.8774 0007068 302.6873  57.3668 14.96941491366919
CORVUS BC1              
1 42847U 17042Y   24098.52200406  .00003082  00000+0  27190-3 0  9995
2 42847  97.3738 287.9872 0007048 298.2996  61.7515 14.97077733366885
MIRATA                  
1 43015U 17073C   24098.24261781  .00017883  00000+0  90707-3 0  9997
2 43015  97.6043 343.9682 0180931 142.3973 219.0066 15.03783678345655
MAKERSAT 0              
1 43016U 17073D   24098.10879952  .00008707  00000+0  51724-3 0  9999
2 43016  97.5930 339.1522 0203556 160.9626 199.9349 14.95725728345281
CORVUS BC3              
1 43118U 18004H   24098.92461682  .00086065  00000+0  76536-3 0  9995
2 43118  97.2917 182.2572 0004633 153.5824 206.5674 15.68229737347830
GOMX-4B                 
1 43196U 18015E   24098.44262847  .00037434  00000+0  56454-3 0  9995
2 43196  97.6043 267.1377 0009889 214.1068 145.9550 15.54632453344506
GOMX-4A                 
1 43197U 18015F   24098.92369422  .00054382  00000+0  62535-3 0  9994
2 43197  97.5970 271.7979 0008753 205.2996 154.7833 15.61810260344867
CICERO 10               
1 43690U 18088A   24098.61633280  .00071040  00000+0  82560-3 0  9994
2 43690  85.0175 229.6923 0008602 199.3446 160.7492 15.61443759301137
PROXIMA I               
1 43694U 18088E   24098.84825584  .00169019  00000+0  10546-2 0  9991
2 43694  85.0095 223.0252 0005351 193.0000 167.1134 15.76396245301632
PROXIMA II              
1 43696U 18088G   24098.79764510  .00159848  00000+0  10462-2 0  9994
2 43696  85.0095 223.2139 0005022 189.5063 170.6113 15.75323507301607
SIRION PATHFINDER-2     
1 43759U 18099B   24098.88984376  .00004164  00000+0  32391-3 0  9996
2 43759  97.5400 157.0301 0013469 162.8536 197.3147 15.01730224291959
CORVUS BC4              
1 43767U 18099K   24098.89263995  .00004157  00000+0  32911-3 0  9993
2 43767  97.5223 154.4459 0008543 244.0954 115.9391 15.01100286291844
MOVE-II                 
1 43780U 18099Y   24098.91006908  .00012525  00000+0  72377-3 0  9998
2 43780  97.5288 162.7017 0007262 208.0729 152.0111 15.12414702292294
SPACEBEE-7              
1 43816U 18099BL  24098.91562685  .00009619  00000+0  60940-3 0  9990
2 43816  97.5561 163.5717 0011436 164.6637 195.4941 15.09107120291804
SPACEBEE-6              
1 43818U 18099BN  24098.94473112  .00020947  00000+0  10309-2 0  9991
2 43818  97.5476 167.9076 0010629 172.2904 187.8495 15.17971013292238
SHIELDS 1               
1 43850U 18104B   24098.59536770  .00010135  00000+0  29327-3 0  9994
2 43850  85.0251 330.9538 0010628 349.4010  10.7014 15.35387186295323
ZACUBE-2                
1 43907U 18111AH  24098.89629433  .00385597  58315-4  11901-2 0  9999
2 43907  97.0733 342.0167 0007453 168.2994 191.8455 15.91686917295120
SONATE                  
1 44400U 19038Q   24098.94592641  .00015974  00000+0  53922-3 0  9995
2 44400  97.7119  90.0940 0016822   4.1324 356.0052 15.30641355263323
LUCKY-7                 
1 44406U 19038W   24098.92110937  .00026703  00000+0  71195-3 0  9997
2 44406  97.7041  93.2848 0013331 353.1712   6.9349 15.38044885263542
BEESAT 9                
1 44412U 19038AC  24098.95406222  .00116052  00000+0  12093-2 0  9990
2 44412  97.6835 100.3143 0003297 348.7860  11.3324 15.64162921263747
JAISAT-1                
1 44419U 19038F   24098.90700693  .00109637  00000+0  11903-2 0  9991
2 44419  97.6824 101.2962 0003237 353.6078   6.5138 15.63134176264112
DUCHIFAT-3              
1 44854U 19089C   24098.74214616  .00010387  00000+0  56989-3 0  9994
2 44854  36.9573 115.8523 0009929 230.6980 129.2886 15.13604306237582
M2 PATHFINDER           
1 45727U 20037E   24098.79337361  .00002126  00000+0  19234-3 0  9991
2 45727  97.7740 275.6455 0011492   5.6553 354.4796 14.96456091205411
NETSAT-4                
1 46504U 20068U   24098.83000894  .00008566  00000+0  48483-3 0  9994
2 46504  97.7999  54.1950 0008257 236.2483 123.7961 15.13273281193527
NETSAT-3                
1 46505U 20068V   24098.39362527  .00008049  00000+0  46189-3 0  9997
2 46505  97.7975  53.3396 0007206 248.0165 112.0299 15.12808183193459
NETSAT-1                
1 46506U 20068W   24098.37448289  .00005972  00000+0  35620-3 0  9996
2 46506  97.7993  52.9381 0006074 262.0456  98.0085 15.11534621193425
NETSAT-2                
1 46507U 20068X   24097.85117726  .00008232  00000+0  46770-3 0  9998
2 46507  97.7984  52.8499 0005096 271.7693  88.2953 15.13169996193323
WILDTRACKCUBE-SIMBA     
1 47941U 21022K   24098.87833925  .00009760  00000+0  46791-3 0  9991
2 47941  97.4690 356.3682 0017447  36.8042 323.4386 15.18977292167780
BEESAT-6                
1 47957U 21022AB  24098.50961657  .00072316  00000+0  14679-2 0  9998
2 47957  97.4560   3.8041 0009463  26.1175 334.0550 15.46050902168068
SMOG-1                  
1 47964U 21022AJ  24098.28403812  .00068878  00000+0  13962-2 0  9997
2 47964  97.4716   6.5970 0007778  13.5366 346.6090 15.46121029167212
BCCSAT-1                
1 48041U 21022AK  24098.25743290  .00042205  00000+0  11306-2 0  9994
2 48041  97.4709   3.6088 0008152  14.7568 345.3913 15.37855241166997
BEESAT-5                
1 48083U 21022AM  24098.23499247  .00105477  00000+0  17660-2 0  9998
2 48083  97.4362   4.4009 0008334  30.8587 329.3153 15.51457423167256
BEESAT-7                
1 48084U 21022AN  24098.91808318  .00038138  00000+0  84266-3 0  9993
2 48084  97.4664   4.5168 0009455  17.1419 343.0146 15.43709840166861
BEESAT-8                
1 48085U 21022AP  24098.46851802  .00021707  00000+0  80338-3 0  9990
2 48085  97.4803   0.0650 0014360  28.9786 331.2247 15.27596339167065
LEDSAT                  
1 49069U 21073D   24098.44439936  .00011753  00000+0  51691-3 0  9997
2 49069  97.4434 170.1828 0021259 169.6968 190.4708 15.21828816145687
SITRO-AIS 5 (KATYS)     
1 57176U 23091L   24098.94420413  .00005638  00000+0  37939-3 0  9996
2 57176  97.6217 151.7765 0017850   6.9300 353.2171 15.06995057 42916
SITRO-AIS 6 (CHIRKIN)   
1 57192U 23091AC  24098.93221659  .00005582  00000+0  37509-3 0  9995
2 57192  97.6213 151.7848 0017642   7.2712 352.8768 15.07058947 42918
SITRO-AIS 8 (ANOKHIN)   
1 57193U 23091AD  24098.91267386  .00005828  00000+0  38924-3 0  9996
2 57193  97.6202 151.8044 0017363   7.3629 352.7850 15.07270383 42915
SITRO-AIS 7 (FARTUSHNIY)
1 57194U 23091AE  24098.93531061  .00005421  00000+0  36479-3 0  9995
2 57194  97.6212 151.7756 0017534   7.8711 352.2788 15.07020207 42916
SITRO-AIS 10 (BURDAEV)  
1 57199U 23091AK  24098.89771853  .00007114  00000+0  45390-3 0  9993
2 57199  97.6223 152.4888 0012110 357.3745   2.7418 15.08939638 42951
SITRO-AIS 9 (SHCHUKIN)  
1 57201U 23091AM  24098.89561712  .00007017  00000+0  44777-3 0  9998
2 57201  97.6218 152.4730 0012062 357.3664   2.7499 15.08944739 42958
SITRO-AIS 12 (SMIRENNIY)
1 57204U 23091AQ  24098.93285405  .00006171  00000+0  39248-3 0  9995
2 57204  97.6229 152.6137 0011806 352.5701   7.5351 15.09118204 42962
SITRO-AIS 11 (SHEFFER)  
1 57208U 23091AU  24098.92214969  .00005938  00000+0  37719-3 0  9996
2 57208  97.6223 152.6189 0011660 352.4364   7.6687 15.09179532 42963
SITRO-AIS B             
1 59052U 24039B   24098.93071383  .00016193  00000+0  66754-3 0  9996
2 59052  97.3869  61.7269 0022415 103.1648 257.2092 15.23921048  5886
SITRO-AIS C             
1 59053U 24039C   24098.93045913  .00016316  00000+0  67217-3 0  9999
2 59053  97.3868  61.7258 0022485 103.8090 256.5651 15.23940033  5876
SITRO-AIS 31            
1 59054U 24039D   24098.92842969  .00016012  00000+0  65806-3 0  9990
2 59054  97.3867  61.7284 0022321 103.8598 256.5124 15.24028909  5894
SITRO-AIS 33            
1 59055U 24039E   24098.92597593  .00017006  00000+0  69662-3 0  9999
2 59055  97.3869  61.7331 0022063 104.2784 256.0906 15.24131541  5884
SITRO-AIS F             
1 59056U 24039F   24098.92442873  .00016604  00000+0  67942-3 0  9992
2 59056  97.3869  61.7345 0021869 104.4078 255.9588 15.24176893  5884
SITRO-AIS G             
1 59057U 24039G   24098.92584739  .00016808  00000+0  68895-3 0  9995
2 59057  97.3869  61.7328 0021808 104.5738 255.7919 15.24117072  5883
SITRO-AIS 35            
1 59058U 24039H   24098.92509781  .00015757  00000+0  64513-3 0  9995
2 59058  97.3869  61.7348 0021991 104.4886 255.8793 15.24167039  5881
SITRO-AIS 36            
1 59059U 24039J   24098.92278298  .00015924  00000+0  65069-3 0  9995
2 59059  97.3868  61.7370 0021550 104.5311 255.8319 15.24239027  5882
SITRO-AIS 49            
1 59060U 24039K   24098.92217074  .00015984  00000+0  65270-3 0  9992
2 59060  97.3868  61.7377 0021520 104.4539 255.9088 15.24262060  5886
SITRO-AIS 50            
1 59061U 24039L   24098.92067923  .00016130  00000+0  65680-3 0  9998
2 59061  97.3868  61.7398 0021536 104.4670 255.8959 15.24354007  5882
SITRO-AIS 51            
1 59062U 24039M   24098.91993544  .00016433  00000+0  66854-3 0  9995
2 59062  97.3869  61.7408 0021455 104.3868 255.9753 15.24381643  5883
SITRO-AIS 52            
1 59063U 24039N   24098.91804154  .00016991  00000+0  68962-3 0  9995
2 59063  97.3869  61.7434 0021270 104.2220 256.1382 15.24456934  5886
SITRO-AIS 25            
1 59066U 24039R   24098.93363512  .00003082  00000+0  30469-3 0  9996
2 59066  95.3982  49.8374 0172935 223.8965 134.8407 14.81729737  5709
SITRO-AIS 26            
1 59067U 24039S   24098.93311144  .00003135  00000+0  30994-3 0  9993
2 59067  95.3982  49.8375 0172719 223.9267 134.8115 14.81743353  5703
